satname,norad_id,inclination_deg,eccentricity,mean_motion_rev_per_day,perigee_km,apogee_km,l1,l2
STARLINK-1338,45532,53.052,0.0001411,15.063908,546.2625840966439,548.2169254168357,1 45532U 20025B   25275.66294260  .00001891  00000+0  14581-3 0  9994,2 45532  53.0520  96.0252 0001411  81.6495 278.4653 15.06390800301270
STARLINK-1350,45535,53.0756,0.0001253,15.31394664,470.79205882798124,472.50861553467894,1 45535U 20025E   25275.64663786  .00025021  00000+0  82306-3 0  9999,2 45535  53.0756  52.7687 0001253 126.0406 234.0710 15.31394664301907
STARLINK-1362,45538,53.0525,0.0001457,15.06394133,546.2205136018292,548.2385654114423,1 45538U 20025H   25275.69512730  .00002419  00000+0  18123-3 0  9991,2 45538  53.0525  95.6016 0001457  82.4599 277.6555 15.06394133301284
STARLINK-1368,45540,53.0538,0.0001464,15.06394422,546.2147802259415,548.2425272893624,1 45540U 20025K   25275.69980082  .00001972  00000+0  15129-3 0  9999,2 45540  53.0538  95.8617 0001464  90.1286 269.9871 15.06394422301272
STARLINK-1371,45542,53.0541,0.0001372,15.06390284,546.2911743312388,548.1914981467025,1 45542U 20025M   25275.67030784  .00000501  00000+0  52555-4 0  9996,2 45542  53.0541  95.9952 0001372  84.6703 275.4442 15.06390284301279
STARLINK-1372,45543,53.0533,0.0001337,15.06391653,546.311217886644,548.1630629317888,1 45543U 20025N   25275.50812308  .00001247  00000+0  10260-3 0  9993,2 45543  53.0533  96.7227 0001337  85.2049 274.9092 15.06391653300349
STARLINK-1373,45544,53.0527,0.0001351,15.06382864,546.3284561224946,548.199699493719,1 45544U 20025P   25275.65924917 -.00002165  00000+0 -12655-3 0  9992,2 45544  53.0527  96.0445 0001351  95.8952 264.2191 15.06382864301273
STARLINK-1294,45551,53.0515,0.0005662,15.55193204,397.7523852982813,405.42974936172504,1 45551U 20025W   25275.66668980  .00002368  00000+0  41511-4 0  9993,2 45551  53.0515  39.5741 0005662 300.4876 351.8169 15.55193204  5875
STARLINK-1323,45553,53.0349,0.000377,15.97883186,277.7825429199347,282.8029989672259,1 45553U 20025Y   25275.66668980  .00637516  18727-3  13753-2 0  9998,2 45553  53.0349  19.0807 0003770  42.0744 103.8129 15.97883186  6030
STARLINK-1325,45554,53.0612,0.0006135,15.48644343,416.51981526706095,424.8619770956766,1 45554U 20025Z   25275.66668980  .00153957  00000+0  27845-2 0  9999,2 45554  53.0612  31.8547 0006135   7.1605  58.5278 15.48644343  5927
STARLINK-1327,45555,53.0535,0.0001494,15.06375484,546.2520386660462,548.3213552666994,1 45555U 20025AA  25275.69795051 -.00004111  00000+0 -25743-3 0  9998,2 45555  53.0535  75.8700 0001494  86.4269 273.6891 15.06375484301550
STARLINK-1336,45557,53.0395,9.4e-05,15.92984737,293.3084494514587,294.5627991048241,1 45557U 20025AC  25275.66668980  .00475750  99902-4  13397-2 0  9991,2 45557  53.0395  25.0129 0000940  80.5051 356.7803 15.92984737  5916
STARLINK-1342,45558,53.0433,0.0003824,16.08633491,248.0598115982366,253.1294655554193,1 45558U 20025AD  25275.80857605  .00904448  46377-3  10277-2 0  9994,2 45558  53.0433  19.8426 0003824 357.5388   2.5626 16.08633491302347
STARLINK-1356,45564,53.0535,0.0001339,15.06392218,546.3081013846086,548.162716115673,1 45564U 20025AK  25275.70162875  .00000363  00000+0  43256-4 0  9995,2 45564  53.0535  75.8511 0001339 101.7083 258.4056 15.06392218301551
STARLINK-1357,45565,53.0614,0.0006877,15.2736714,478.96767342263865,488.40542553259,1 45565U 20025AL  25275.66668980  .00104026  00000+0  37882-2 0  9996,2 45565  53.0614  65.7691 0006877 173.4496 299.1027 15.27367140  5755
STARLINK-1361,45567,53.0535,0.0001373,15.0639239,546.2840280310829,548.1857351497674,1 45567U 20025AN  25275.65371778  .00000827  00000+0  74436-4 0  9995,2 45567  53.0535  76.0688 0001373  90.6513 269.4633 15.06392390301558
STARLINK-1363,45568,53.0528,0.0001409,15.06390606,546.2645636763918,548.2161350134384,1 45568U 20025AP  25275.60214509  .00001685  00000+0  13202-3 0  9995,2 45568  53.0528  76.5406 0001409  81.0266 279.0882 15.06390606301532
STARLINK-1366,45569,53.0545,9.89e-05,15.06388381,546.5622482344388,547.9320892230135,1 45569U 20025AQ  25275.65741513 -.00000442  00000+0 -10768-4 0  9998,2 45569  53.0545  76.0519 0000989  70.2779 289.8317 15.06388381301543
STARLINK-1376,45570,53.0528,0.0001346,15.0639731,546.2876493875101,548.1519554387196,1 45570U 20025AR  25275.65002786  .00002404  00000+0  18025-3 0  9993,2 45570  53.0528  76.0863 0001346  85.7153 274.3990 15.06397310301541
STARLINK-1320,45572,53.0606,0.0007893,15.379358,446.82304064040727,457.6054331029336,1 45572U 20025AT  25275.64890852  .00042285  00000+0  11201-2 0  9992,2 45572  53.0606  26.2961 0007893 245.3842 114.6338 15.37935800302266
STARLINK-1321,45573,53.054,0.0001208,15.06397409,546.3829159264087,548.0560820565643,1 45573U 20025AU  25275.70255104  .00000675  00000+0  64180-4 0  9998,2 45573  53.0540  65.8482 0001208  90.1259 269.9868 15.06397409301391
STARLINK-1328,45576,53.0534,0.000522,15.58659617,388.00162532430204,395.069163303966,1 45576U 20025AX  25275.66668980  .00179430  00000+0  22483-2 0  9990,2 45576  53.0534  53.9751 0005220 282.5895 334.5887 15.58659617  5700
STARLINK-1331,45578,53.0519,0.0001315,15.06386356,546.3426863144769,548.1640639831412,1 45578U 20025AZ  25275.68043623 -.00001416  00000+0 -76235-4 0  9991,2 45578  53.0519  65.9470 0001315  92.8169 267.2971 15.06386356301708
STARLINK-1333,45580,53.0532,0.00013,15.06397293,546.3195581247346,548.1201509069087,1 45580U 20025BB  25275.68689765 -.00000251  00000+0  20216-5 0  9991,2 45580  53.0532  75.9200 0001300  92.3980 267.7158 15.06397293301555
STARLINK-1335,45581,53.0562,0.0001409,15.06391961,546.2604113416437,548.211981508397,1 45581U 20025BC  25275.69149774  .00000580  00000+0  57829-4 0  9997,2 45581  53.0562  65.9006 0001409  80.0034 280.1114 15.06391961301698
STARLINK-1337,45582,53.054,0.0001291,15.06361162,546.4365155057549,548.2246712383649,1 45582U 20025BD  25275.71361627 -.00008923  00000+0 -58152-3 0  9994,2 45582  53.0540  65.8008 0001291  92.3938 267.7198 15.06361162301697
STARLINK-1347,45586,53.0547,0.0005495,15.26836482,481.50491418958245,489.0478054720361,1 45586U 20025BH  25275.66668980  .00108430  00000+0  40105-2 0  9994,2 45586  53.0547  56.1168 0005495 185.6541  19.6298 15.26836482  5807
STARLINK-1360,45588,53.0486,0.0005351,15.69078103,357.92920576436336,365.1420033857794,1 45588U 20025BK  25275.66668980  .00189161  00000+0  15703-2 0  9992,2 45588  53.0486 343.7181 0005351  15.6882  55.4903 15.69078103  5921
STARLINK-1364,45589,53.0556,0.0001443,15.06399785,546.2128889903943,548.2115447743872,1 45589U 20025BL  25275.65094451 -.00003076  00000+0 -18770-3 0  9998,2 45589  53.0556  66.0856 0001443 106.8152 253.2995 15.06399785301689
STARLINK-1365,45590,53.0534,0.0001358,15.06386334,546.3129745545575,548.1939105987622,1 45590U 20025BM  25275.66662370 -.00000359  00000+0 -52054-5 0  9998,2 45590  53.0534  96.0100 0001358  92.4684 267.6460 15.06386334301285
STARLINK-1443,45660,53.053,0.0001118,15.06394389,546.4544990071263,548.003010789922,1 45660U 20035D   25275.65186502 -.00002347  00000+0 -13876-3 0  9990,2 45660  53.0530  56.0781 0001118  98.3813 261.7303 15.06394389294914
STARLINK-1446,45663,53.0288,0.0003807,15.30567173,471.5103223455144,476.72763004578974,1 45663U 20035G   25275.61838941  .00043441  00000+0  14534-2 0  9999,2 45663  53.0288  24.3982 0003807 169.0735 191.0347 15.30567173295356
STARLINK-1448,45665,53.0534,0.0001319,15.06399652,546.2991708928894,548.1260781238343,1 45665U 20035J   25275.65557343  .00012064  00000+0  82738-3 0  9998,2 45665  53.0534  56.0580 0001319 106.5446 253.5688 15.06399652294909
STARLINK-1451,45668,53.0534,0.0001566,15.06392786,546.1491548509139,548.3181809440985,1 45668U 20035M   25275.65927478 -.00002338  00000+0 -13810-3 0  9991,2 45668  53.0534  56.3606 0001566  52.1041 308.0089 15.06392786294918
STARLINK-1452,45669,53.0413,0.0006653,15.23568271,490.51525027550815,499.6607634696529,1 45669U 20035N   25275.66668980  .00115053  00000+0  46873-2 0  9994,2 45669  53.0413  41.0866 0006653 267.6399 143.4084 15.23568271  5699
STARLINK-1453,45670,53.0559,0.0001522,15.06375806,546.2316607196863,548.3397593926275,1 45670U 20035P   25275.66938997  .00013570  00000+0  92872-3 0  9996,2 45670  53.0559  26.0018 0001522  99.3338 260.7823 15.06375806295222
STARLINK-1454,45671,53.0548,0.0001267,15.06396532,546.3447438702087,548.0996298881646,1 45671U 20035Q   25275.68135124 -.00000702  00000+0 -28237-4 0  9990,2 45671  53.0548  55.9450 0001267  84.4897 275.6237 15.06396532294900
STARLINK-1456,45673,53.0548,0.0001261,15.06390071,546.3686987698666,548.1152793509063,1 45673U 20035S   25275.69609698 -.00001701  00000+0 -95361-4 0  9997,2 45673  53.0548  55.8819 0001261  88.8379 271.2755 15.06390071294928
STARLINK-1457,45674,53.0538,0.0001086,15.06387299,546.4983878666399,548.0025820283699,1 45674U 20035T   25275.63710529 -.00018812  00000+0 -12478-2 0  9995,2 45674  53.0538  56.1436 0001086  75.8360 284.2750 15.06387299294880
STARLINK-1458,45675,53.0541,0.0001471,15.06386943,546.2328513922412,548.270300711315,1 45675U 20035U   25275.62607613  .00006199  00000+0  43482-3 0  9997,2 45675  53.0541  56.1919 0001471  90.4888 269.6270 15.06386943294875
STARLINK-1460,45676,53.054,0.0001348,15.06389477,546.3102682722993,548.1773509385694,1 45676U 20035V   25275.59658675 -.00000853  00000+0 -38404-4 0  9990,2 45676  53.0540  56.3257 0001348  90.4142 269.7001 15.06389477294865
STARLINK-1392,45677,53.0537,0.0001399,15.06421477,546.1768877539753,548.1145818631749,1 45677U 20035W   25274.67877228  .00007056  00000+0  49186-3 0  9994,2 45677  53.0537  60.4455 0001399  84.7564 275.3585 15.06421477294764
STARLINK-1394,45679,53.0543,0.0001229,15.06388056,546.3970349831452,548.0992946566585,1 45679U 20035Y   25275.67121345 -.00001314  00000+0 -69392-4 0  9994,2 45679  53.0543  45.9902 0001229 107.7404 252.3720 15.06388056295053
